[{"OBJECT_NAME":"STARLINK-1434","OBJECT_ID":"2020-035BH","EPOCH":"2026-03-09T05:47:35.213856","MEAN_MOTION":15.26724568,"ECCENTRICITY":0.00053438,"INCLINATION":53.0547,"RA_OF_ASC_NODE":22.1128,"ARG_OF_PERICENTER":88.04,"MEAN_ANOMALY":272.121,"EPHEMERIS_TYPE":0,"CLASSIFICATION_TYPE":"U","NORAD_CAT_ID":45712,"ELEMENT_SET_NO":999,"REV_AT_EPOCH":31932,"BSTAR":0.0020295208,"MEAN_MOTION_DOT":0.00054112,"MEAN_MOTION_DDOT":0},{"OBJECT_NAME":"STARLINK-30830","OBJECT_ID":"2023-167V","EPOCH":"2026-03-08T06:41:49.996896","MEAN_MOTION":15.26745059,"ECCENTRICITY":0.0002253,"INCLINATION":43.0047,"RA_OF_ASC_NODE":150.9804,"ARG_OF_PERICENTER":291.0825,"MEAN_ANOMALY":68.9786,"EPHEMERIS_TYPE":0,"CLASSIFICATION_TYPE":"U","NORAD_CAT_ID":58194,"ELEMENT_SET_NO":999,"REV_AT_EPOCH":13077,"BSTAR":-2.3032986e-5,"MEAN_MOTION_DOT":-8.78e-6,"MEAN_MOTION_DDOT":0}]
